KUIPER-00157            
1 65970U 25228Z   25342.42845605  .00039829  00000+0  11337-2 0  9993
2 65970  51.8803  41.4124 0007370   8.9286 351.1830 15.35705929  9758
